[{"OBJECT_NAME":"OSCAR 31","OBJECT_ID":"1988-074B","EPOCH":"2026-03-14T14:38:42.479232","MEAN_MOTION":13.42598805,"ECCENTRICITY":0.0093842,"INCLINATION":90.0443,"RA_OF_ASC_NODE":20.9264,"ARG_OF_PERICENTER":339.7012,"MEAN_ANOMALY":194.699,"EPHEMERIS_TYPE":0,"CLASSIFICATION_TYPE":"U","NORAD_CAT_ID":19420,"ELEMENT_SET_NO":999,"REV_AT_EPOCH":83883,"BSTAR":0.00012291071,"MEAN_MOTION_DOT":8.0e-7,"MEAN_MOTION_DDOT":0}]
