OSCAR 31                
1 19420U 88074B   26073.61021388  .00000080  00000+0  12291-3 0  9995
2 19420  90.0443  20.9264 0093842 339.7012 194.6990 13.42598805838835
